NORAD_CAT_ID,OBJECT_NAME,OBJECT_TYPE,EPOCH,MEAN_MOTION,ECCENTRICITY,INCLINATION,RA_OF_ASC_NODE,ARG_OF_PERICENTER,MEAN_ANOMALY,BSTAR,MEAN_MOTION_DOT,MEAN_MOTION_DDOT,TLE_LINE0,TLE_LINE1,TLE_LINE2,SEMIMAJOR_AXIS,PERIOD,APOGEE,PERIGEE,DECAYED
54174.0,STARLINK-5248,PAYLOAD,2024-03-31 14:10:45,15.08831262,0.0001606,53.2183,247.6412,92.8903,267.2273,-0.0005523,-9.065e-05,0.0,0 STARLINK-5248,1 54174U 22141T   24091.59079901 -.00009065  00000-0 -55230-3 0  9997,2 54174  53.2183 247.6412 0001606  92.8903 267.2273 15.08831262 79736,6917.907,95.438,540.883,538.661,0.0
54174.0,STARLINK-5248,PAYLOAD,2024-03-31 15:46:08,15.08830986,0.0001725,53.2182,247.344,93.7505,266.3684,-0.00047775,-7.882e-05,0.0,0 STARLINK-5248,1 54174U 22141T   24091.65703988 -.00007882  00000-0 -47775-3 0  9993,2 54174  53.2182 247.3440 0001725  93.7505 266.3684 15.08830986 79742,6917.908,95.438,540.966,538.58,0.0
54174.0,STARLINK-5248,PAYLOAD,2024-04-01 14:01:33,15.08829494,0.0001467,53.2175,243.1812,96.4898,263.6262,0.00026618,3.95e-05,0.0,0 STARLINK-5248,1 54174U 22141T   24092.58441085  .00003950  00000-0  26618-3 0  9996,2 54174  53.2175 243.1812 0001467  96.4898 263.6262 15.08829494 79888,6917.913,95.438,540.792,538.763,0.0
54174.0,STARLINK-5248,PAYLOAD,2024-04-01 20:23:05,15.08839368,0.0001451,53.2172,241.9914,92.7794,267.3364,0.00078497,0.00012227,0.0,0 STARLINK-5248,1 54174U 22141T   24092.84937219  .00012227  00000-0  78497-3 0  9993,2 54174  53.2172 241.9914 0001451  92.7794 267.3364 15.08839368 79910,6917.882,95.438,540.751,538.744,0.0
54174.0,STARLINK-5248,PAYLOAD,2024-04-02 02:44:38,15.08835803,0.000136,53.2164,240.8024,98.6885,261.4261,0.00057052,8.802e-05,0.0,0 STARLINK-5248,1 54174U 22141T   24093.11433423  .00008802  00000-0  57052-3 0  9990,2 54174  53.2164 240.8024 0001360  98.6885 261.4261 15.08835803 79951,6917.893,95.438,540.699,538.817,0.0
54174.0,STARLINK-5248,PAYLOAD,2024-04-02 13:52:20,15.08840522,0.0001411,53.2165,238.7217,97.4135,262.7018,0.00039808,6.053e-05,0.0,0 STARLINK-5248,1 54174U 22141T   24093.57801478  .00006053  00000-0  39808-3 0  9994,2 54174  53.2165 238.7217 0001411  97.4135 262.7018 15.08840522 80033,6917.879,95.438,540.72,538.768,0.0
54174.0,STARLINK-5248,PAYLOAD,2024-04-02 18:38:29,15.08846395,0.0001417,53.2165,237.8294,94.6019,265.5135,0.00051139,7.862e-05,0.0,0 STARLINK-5248,1 54174U 22141T   24093.77673360  .00007862  00000-0  51139-3 0  9993,2 54174  53.2165 237.8294 0001417  94.6019 265.5135 15.08846395 80062,6917.861,95.437,540.706,538.746,0.0
54174.0,STARLINK-5248,PAYLOAD,2024-04-03 08:56:57,15.08844639,0.0001359,53.2157,235.1512,87.2752,272.8395,0.00025202,3.726e-05,0.0,0 STARLINK-5248,1 54174U 22141T   24094.37289312  .00003726  00000-0  25202-3 0  9997,2 54174  53.2157 235.1512 0001359  87.2752 272.8395 15.08844639 80141,6917.866,95.437,540.671,538.791,0.0
54174.0,STARLINK-5248,PAYLOAD,2024-04-03 18:29:16,15.08848017,0.0001598,53.2166,233.3669,85.1439,274.9735,0.00027917,4.159e-05,0.0,0 STARLINK-5248,1 54174U 22141T   24094.77033286  .00004159  00000-0  27917-3 0  9994,2 54174  53.2166 233.3669 0001598  85.1439 274.9735 15.08848017 80211,6917.856,95.437,540.826,538.615,0.0
54174.0,STARLINK-5248,PAYLOAD,2024-04-04 02:26:12,15.08843754,0.000133,53.2166,231.8799,86.9412,273.1732,0.00016834,2.393e-05,0.0,0 STARLINK-5248,1 54174U 22141T   24095.10153309  .00002393  00000-0  16834-3 0  9995,2 54174  53.2166 231.8799 0001330  86.9412 273.1732 15.08843754 80257,6917.869,95.437,540.654,538.814,0.0
54174.0,STARLINK-5248,PAYLOAD,2024-04-04 15:09:17,15.08839411,0.0001323,53.2155,229.5004,93.1193,266.995,8.5212e-05,1.068e-05,0.0,0 STARLINK-5248,1 54174U 22141T   24095.63145616  .00001068  00000-0  85212-4 0  9990,2 54174  53.2155 229.5004 0001323  93.1193 266.9950 15.08839411 80343,6917.882,95.438,540.662,538.832,0.0
54174.0,STARLINK-5248,PAYLOAD,2024-04-05 15:00:04,15.08852052,0.0001487,53.2171,225.0411,85.7243,274.3919,0.00024809,3.664e-05,0.0,0 STARLINK-5248,1 54174U 22141T   24096.62505010  .00003664  00000-0  24809-3 0  9996,2 54174  53.2171 225.0411 0001487  85.7243 274.3919 15.08852052 80498,6917.844,95.437,540.737,538.68,0.0
54174.0,STARLINK-5248,PAYLOAD,2024-04-06 02:07:46,15.08847219,0.000125,53.2181,222.9598,84.8465,275.267,0.00015672,2.208e-05,0.0,0 STARLINK-5248,1 54174U 22141T   24097.08873018  .00002208  00000-0  15672-3 0  9994,2 54174  53.2181 222.9598 0001250  84.8465 275.2670 15.08847219 80555,6917.858,95.437,540.588,538.859,0.0
54174.0,STARLINK-5248,PAYLOAD,2024-04-06 14:50:51,15.08843213,0.0001785,53.2158,220.5796,93.5497,266.5699,0.00012401,1.686e-05,0.0,0 STARLINK-5248,1 54174U 22141T   24097.61865338  .00001686  00000-0  12401-3 0  9995,2 54174  53.2158 220.5796 0001785  93.5497 266.5699 15.08843213 80642,6917.871,95.437,540.97,538.501,0.0
54174.0,STARLINK-5248,PAYLOAD,2024-04-07 08:20:06,15.08832721,0.0001791,53.2166,217.3092,91.9533,268.1664,-8.573e-05,-1.652e-05,0.0,0 STARLINK-5248,1 54174U 22141T   24098.34729918 -.00001652  00000-0 -85730-4 0  9990,2 54174  53.2166 217.3092 0001791  91.9533 268.1664 15.08832721 80747,6917.903,95.438,541.007,538.529,0.0
54174.0,STARLINK-5248,PAYLOAD,2024-04-07 14:41:39,15.08835254,0.0001576,53.2161,216.1195,94.2067,265.9106,-2.6558e-05,-7.11e-06,0.0,0 STARLINK-5248,1 54174U 22141T   24098.61225963 -.00000711  00000-0 -26558-4 0  9999,2 54174  53.2161 216.1195 0001576  94.2067 265.9106 15.08835254 80797,6917.895,95.438,540.85,538.67,0.0
54174.0,STARLINK-5248,PAYLOAD,2024-04-08 00:13:57,15.08852492,0.0001547,53.2176,214.3355,88.1799,271.937,-0.0004668,-7.712e-05,0.0,0 STARLINK-5248,1 54174U 22141T   24099.00969005 -.00007712  00000-0 -46680-3 0  9990,2 54174  53.2176 214.3355 0001547  88.1799 271.9370 15.08852492 80842,6917.842,95.437,540.777,538.637,0.0
54174.0,STARLINK-5248,PAYLOAD,2024-04-08 08:10:54,15.08832564,0.0001327,53.2189,212.8492,95.5678,264.5465,0.00023495,3.453e-05,0.0,0 STARLINK-5248,1 54174U 22141T   24099.34090394  .00003453  00000-0  23495-3 0  9998,2 54174  53.2189 212.8492 0001327  95.5678 264.5465 15.08832564 80891,6917.903,95.438,540.686,538.85,0.0
54174.0,STARLINK-5248,PAYLOAD,2024-04-08 14:32:26,15.08844355,0.0001524,53.2172,211.6619,95.5746,264.542,0.00019473,2.813e-05,0.0,0 STARLINK-5248,1 54174U 22141T   24099.60585838  .00002813  00000-0  19473-3 0  9999,2 54174  53.2172 211.6619 0001524  95.5746 264.5420 15.08844355 80944,6917.867,95.437,540.786,538.678,0.0
54174.0,STARLINK-5248,PAYLOAD,2024-04-09 00:04:44,15.08844042,9.97e-05,53.2181,209.8746,77.5006,282.6098,0.00022704,3.328e-05,0.0,0 STARLINK-5248,1 54174U 22141T   24100.00329794  .00003328  00000-0  22704-3 0  9996,2 54174  53.2181 209.8746 0000997  77.5006 282.6098 15.08844042 81009,6917.868,95.437,540.423,539.043,0.0
54174.0,STARLINK-5248,PAYLOAD,2024-04-09 08:01:41,15.08837086,0.0001356,53.2161,208.3923,105.2073,254.9069,0.00012065,1.633e-05,0.0,0 STARLINK-5248,1 54174U 22141T   24100.33450255  .00001633  00000-0  12065-3 0  9995,2 54174  53.2161 208.3923 0001356 105.2073 254.9069 15.08837086 81045,6917.889,95.438,540.692,538.816,0.0
54174.0,STARLINK-5248,PAYLOAD,2024-04-09 17:33:59,15.08844805,0.0001609,53.213,206.6067,101.8028,258.3145,0.00019505,2.818e-05,0.0,0 STARLINK-5248,1 54174U 22141T   24100.73193847  .00002818  00000-0  19505-3 0  9992,2 54174  53.2130 206.6067 0001609 101.8028 258.3145 15.08844805 81112,6917.866,95.437,540.844,538.618,0.0
54174.0,STARLINK-5248,PAYLOAD,2024-04-09 23:55:32,15.08833539,0.0002805,53.2146,205.4177,84.4171,275.7141,4.5472e-06,-2.16e-06,0.0,0 STARLINK-5248,1 54174U 22141T   24100.99690872 -.00000216  00000-0  45472-5 0  9995,2 54174  53.2146 205.4177 0002805  84.4171 275.7141 15.08833539 81146,6917.9,95.438,541.706,537.825,0.0
54174.0,STARLINK-5248,PAYLOAD,2024-04-10 06:17:05,15.08840177,0.0002308,53.2147,204.226,80.5296,279.5957,1.419e-06,-2.66e-06,0.0,0 STARLINK-5248,1 54174U 22141T   24101.26186413 -.00000266  00000-0  14190-5 0  9995,2 54174  53.2147 204.2260 0002308  80.5296 279.5957 15.08840177 81187,6917.88,95.438,541.341,538.148,0.0
54174.0,STARLINK-5248,PAYLOAD,2024-04-10 23:46:20,15.08830185,0.0002465,53.2179,200.9549,83.6371,276.4902,1.3016e-05,-8.1e-07,0.0,0 STARLINK-5248,1 54174U 22141T   24101.99051336 -.00000081  00000-0  13016-4 0  9990,2 54174  53.2179 200.9549 0002465  83.6371 276.4902 15.08830185 81293,6917.91,95.438,541.481,538.07,0.0
54174.0,STARLINK-5248,PAYLOAD,2024-04-11 12:29:28,15.08766593,0.0002235,53.2164,198.5788,84.3189,275.8058,0.0028466,0.00045216,0.0,0 STARLINK-5248,1 54174U 22141T   24102.52046876  .00045216  00000-0  28466-2 0  9994,2 54174  53.2164 198.5788 0002235  84.3189 275.8058 15.08766593 81379,6918.105,95.442,541.516,538.424,0.0
54174.0,STARLINK-5248,PAYLOAD,2024-04-11 14:04:46,15.08866188,0.0001315,53.2171,198.2817,84.5071,275.6071,-4.9031e-05,-1.069e-05,0.0,0 STARLINK-5248,1 54174U 22141T   24102.58664989 -.00001069  00000-0 -49031-4 0  9994,2 54174  53.2171 198.2817 0001315  84.5071 275.6071 15.08866188 81393,6917.8,95.436,540.575,538.756,0.0
54174.0,STARLINK-5248,PAYLOAD,2024-04-11 20:26:19,15.08853871,0.0001524,53.2162,197.0916,78.4815,281.6348,0.00042499,6.485e-05,0.0,0 STARLINK-5248,1 54174U 22141T   24102.85161808  .00006485  00000-0  42499-3 0  9991,2 54174  53.2162 197.0916 0001524  78.4815 281.6348 15.08853871 81423,6917.838,95.437,540.757,538.649,0.0
54174.0,STARLINK-5248,PAYLOAD,2024-04-11 23:37:06,15.08834334,0.0001369,53.2172,196.4978,78.8883,281.2263,0.00011996,1.621e-05,0.0,0 STARLINK-5248,1 54174U 22141T   24102.98410637  .00001621  00000-0  11996-3 0  9997,2 54174  53.2172 196.4978 0001369  78.8883 281.2263 15.08834334 81448,6917.898,95.438,540.71,538.816,0.0
54174.0,STARLINK-5248,PAYLOAD,2024-04-12 12:20:11,15.08849684,0.0001429,53.2157,194.1174,81.3563,278.7591,0.00025639,3.796e-05,0.0,0 STARLINK-5248,1 54174U 22141T   24103.51401996  .00003796  00000-0  25639-3 0  9999,2 54174  53.2157 194.1174 0001429  81.3563 278.7591 15.08849684 81523,6917.851,95.437,540.704,538.727,0.0
